NORAD_CAT_ID,OBJECT_NAME,OBJECT_TYPE,EPOCH,MEAN_MOTION,ECCENTRICITY,INCLINATION,RA_OF_ASC_NODE,ARG_OF_PERICENTER,MEAN_ANOMALY,BSTAR,MEAN_MOTION_DOT,MEAN_MOTION_DDOT,TLE_LINE0,TLE_LINE1,TLE_LINE2,SEMIMAJOR_AXIS,PERIOD,APOGEE,PERIGEE,DECAYED
53257.0,STARLINK-4144,PAYLOAD,2023-03-19 03:27:46,15.08857494,0.0001463,53.2192,31.8095,90.3731,269.7429,0.00071579,0.00011128,0.0,0 STARLINK-4144,1 53257U 22086R   23078.14429082  .00011128  00000-0  71579-3 0  9995,2 53257  53.2192  31.8095 0001463  90.3731 269.7429 15.08857494 36851,6917.827,95.436,540.704,538.68,0.0
53257.0,STARLINK-4144,PAYLOAD,2023-03-19 06:38:32,15.08863172,0.0001471,53.2191,31.2148,90.3473,269.7688,0.00084331,0.00013167,0.0,0 STARLINK-4144,1 53257U 22086R   23078.27676872  .00013167  00000-0  84331-3 0  9995,2 53257  53.2191  31.2148 0001471  90.3473 269.7688 15.08863172 37055,6917.81,95.436,540.692,538.657,0.0
53257.0,STARLINK-4144,PAYLOAD,2023-03-20 03:18:33,15.08847099,0.0001304,53.2187,27.3508,99.0031,261.1109,0.00036712,5.561e-05,0.0,0 STARLINK-4144,1 53257U 22086R   23079.13789038  .00005561  00000-0  36712-3 0  9999,2 53257  53.2187  27.3508 0001304  99.0031 261.1109 15.08847099 37006,6917.859,95.437,540.626,538.822,0.0
53257.0,STARLINK-4144,PAYLOAD,2023-03-20 06:29:19,15.08851214,0.0001301,53.2186,26.7554,101.1594,258.9544,0.00057082,8.811e-05,0.0,0 STARLINK-4144,1 53257U 22086R   23079.27036934  .00008811  00000-0  57082-3 0  9998,2 53257  53.2186  26.7554 0001301 101.1594 258.9544 15.08851214 37208,6917.846,95.437,540.611,538.811,0.0
53257.0,STARLINK-4144,PAYLOAD,2023-03-21 03:09:21,15.08854475,0.0001351,53.219,22.8908,95.2825,264.8322,0.0015582,0.00024608,0.0,0 STARLINK-4144,1 53257U 22086R   23080.13149411  .00024608  00000-0  15582-2 0  9990,2 53257  53.2190  22.8908 0001351  95.2825 264.8322 15.08854475 37154,6917.836,95.437,540.636,538.767,0.0
53257.0,STARLINK-4144,PAYLOAD,2023-03-22 04:35:31,15.0884859,9.68e-05,53.2189,18.1332,81.0894,279.0208,0.00055523,8.562e-05,0.0,0 STARLINK-4144,1 53257U 22086R   23081.19133707  .00008562  00000-0  55523-3 0  9999,2 53257  53.2189  18.1332 0000968  81.0894 279.0208 15.08848590 37313,6917.854,95.437,540.389,539.049,0.0
53257.0,STARLINK-4144,PAYLOAD,2023-03-22 06:10:54,15.08848788,0.0001031,53.219,17.8358,81.8169,278.294,0.0009464,0.0001481,0.0,0 STARLINK-4144,1 53257U 22086R   23081.25757767  .00014810  00000-0  94640-3 0  9990,2 53257  53.2190  17.8358 0001031  81.8169 278.2940 15.08848788 37508,6917.854,95.437,540.432,539.005,0.0
53257.0,STARLINK-4144,PAYLOAD,2023-03-23 04:26:17,15.08863278,9.43e-05,53.2173,13.6725,121.3624,238.7461,0.00090376,0.00014134,0.0,0 STARLINK-4144,1 53257U 22086R   23082.18492996  .00014134  00000-0  90376-3 0  9994,2 53257  53.2173  13.6725 0000943 121.3624 238.7461 15.08863278 37643,6917.809,95.436,540.327,539.022,0.0
53257.0,STARLINK-4144,PAYLOAD,2023-03-24 04:17:04,15.08887824,8.73e-05,53.2176,9.2117,78.7699,281.3391,0.0015792,0.00024967,0.0,0 STARLINK-4144,1 53257U 22086R   23083.17852791  .00024967  00000-0  15792-2 0  9990,2 53257  53.2176   9.2117 0000873  78.7699 281.3391 15.08887824 37617,6917.734,95.435,540.203,538.995,0.0
53257.0,STARLINK-4144,PAYLOAD,2023-03-25 04:07:52,15.08840254,0.0001275,53.2171,4.7534,88.0313,272.0825,0.00048125,7.38e-05,0.0,0 STARLINK-4144,1 53257U 22086R   23084.17213477  .00007380  00000-0  48125-3 0  9990,2 53257  53.2171   4.7534 0001275  88.0313 272.0825 15.08840254 37760,6917.88,95.438,540.627,538.863,0.0
53257.0,STARLINK-4144,PAYLOAD,2023-03-25 05:43:15,15.0884232,0.0001236,53.2165,4.4562,91.3928,268.7206,0.00059674,9.223e-05,0.0,0 STARLINK-4144,1 53257U 22086R   23084.23837435  .00009223  00000-0  59674-3 0  9992,2 53257  53.2165   4.4562 0001236  91.3928 268.7206 15.08842320 37959,6917.873,95.437,540.593,538.883,0.0
53257.0,STARLINK-4144,PAYLOAD,2023-03-26 00:47:54,15.08821899,0.0001436,53.217,0.8882,91.573,268.5427,0.00037383,5.664e-05,0.0,0 STARLINK-4144,1 53257U 22086R   23085.03326846  .00005664  00000-0  37383-3 0  9998,2 53257  53.2170   0.8882 0001436  91.5730 268.5427 15.08821899 37899,6917.936,95.439,540.794,538.807,0.0
53257.0,STARLINK-4144,PAYLOAD,2023-03-26 21:27:55,15.08854773,0.0001579,53.2171,357.0214,79.6821,280.4349,0.00091621,0.00014329,0.0,0 STARLINK-4144,1 53257U 22086R   23085.89438836  .00014329  00000-0  91621-3 0  9998,2 53257  53.2171 357.0214 0001579  79.6821 280.4349 15.08854773 38201,6917.835,95.437,540.793,538.608,0.0
53257.0,STARLINK-4144,PAYLOAD,2023-03-27 03:49:26,15.08884804,0.0001635,53.2181,355.8341,96.3107,263.8072,0.0016635,0.00026318,0.0,0 STARLINK-4144,1 53257U 22086R   23086.15933989  .00026318  00000-0  16635-2 0  9999,2 53257  53.2181 355.8341 0001635  96.3107 263.8072 15.08884804 38065,6917.743,95.435,540.739,538.477,0.0
53257.0,STARLINK-4144,PAYLOAD,2023-03-27 21:18:41,15.08859334,0.0001371,53.2181,352.5604,112.7236,247.3901,0.0012703,0.00019997,0.0,0 STARLINK-4144,1 53257U 22086R   23086.88797811  .00019997  00000-0  12703-2 0  9998,2 53257  53.2181 352.5604 0001371 112.7236 247.3901 15.08859334 38174,6917.821,95.436,540.635,538.738,0.0
53257.0,STARLINK-4144,PAYLOAD,2023-03-28 03:40:13,15.08870515,0.0001048,53.2179,351.3704,97.133,262.9782,0.001741,0.00027552,0.0,0 STARLINK-4144,1 53257U 22086R   23087.15293404  .00027552  00000-0  17410-2 0  9994,2 53257  53.2179 351.3704 0001048  97.1330 262.9782 15.08870515 38399,6917.787,95.436,540.377,538.927,0.0
53257.0,STARLINK-4144,PAYLOAD,2023-03-28 21:09:28,15.08850398,0.0001051,53.2181,348.1015,105.0295,255.0813,0.0015192,0.0002398,0.0,0 STARLINK-4144,1 53257U 22086R   23087.88157840  .00023980  00000-0  15192-2 0  9993,2 53257  53.2181 348.1015 0001051 105.0295 255.0813 15.08850398 38502,6917.849,95.437,540.441,538.987,0.0
53257.0,STARLINK-4144,PAYLOAD,2023-03-28 22:44:51,15.08854455,0.000116,53.2177,347.8022,107.0538,253.0581,0.0015603,0.00024641,0.0,0 STARLINK-4144,1 53257U 22086R   23087.94781728  .00024641  00000-0  15603-2 0  9990,2 53257  53.2177 347.8022 0001160 107.0538 253.0581 15.08854455 38333,6917.836,95.437,540.504,538.899,0.0
53257.0,STARLINK-4144,PAYLOAD,2023-03-29 00:20:14,15.08860921,0.0001163,53.2179,347.5062,106.3517,253.7603,0.0018862,0.00029876,0.0,0 STARLINK-4144,1 53257U 22086R   23088.01405621  .00029876  00000-0  18862-2 0  9999,2 53257  53.2179 347.5062 0001163 106.3517 253.7603 15.08860921 38526,6917.816,95.436,540.486,538.877,0.0
53257.0,STARLINK-4144,PAYLOAD,2023-03-30 03:21:47,15.08863286,0.0001107,53.2173,342.4511,120.4809,239.6292,0.0017517,0.00027718,0.0,0 STARLINK-4144,1 53257U 22086R   23089.14013868  .00027718  00000-0  17517-2 0  9991,2 53257  53.2173 342.4511 0001107 120.4809 239.6292 15.08863286 38515,6917.809,95.436,540.44,538.908,0.0
53257.0,STARLINK-4144,PAYLOAD,2023-03-31 01:37:12,15.08873052,0.0001347,53.2173,338.2888,117.3352,242.7777,0.0027688,0.00044093,0.0,0 STARLINK-4144,1 53257U 22086R   23090.06750196  .00044093  00000-0  27688-2 0  9991,2 53257  53.2173 338.2888 0001347 117.3352 242.7777 15.08873052 38659,6917.779,95.435,540.576,538.713,0.0
53257.0,STARLINK-4144,PAYLOAD,2023-03-31 15:55:40,15.08854034,0.0001505,53.2171,335.612,114.2495,245.8654,0.0029659,0.00047249,0.0,0 STARLINK-4144,1 53257U 22086R   23090.66366590  .00047249  00000-0  29659-2 0  9994,2 53257  53.2171 335.6120 0001505 114.2495 245.8654 15.08854034 38744,6917.837,95.437,540.744,538.661,0.0
53257.0,STARLINK-4144,PAYLOAD,2023-03-31 20:41:50,15.08845526,3.82e-05,53.2173,334.7199,73.5708,286.5326,0.0013996,0.0002206,0.0,0 STARLINK-4144,1 53257U 22086R   23090.86238529  .00022060  00000-0  13996-2 0  9997,2 53257  53.2173 334.7199 0000382  73.5708 286.5326 15.08845526 38775,6917.863,95.437,539.993,539.464,0.0
53257.0,STARLINK-4144,PAYLOAD,2023-04-01 01:27:59,15.08849621,0.0001303,53.2172,333.8268,115.7258,244.3868,0.0012577,0.0001979,0.0,0 STARLINK-4144,1 53257U 22086R   23091.06110501  .00019790  00000-0  12577-2 0  9999,2 53257  53.2172 333.8268 0001303 115.7258 244.3868 15.08849621 38980,6917.851,95.437,540.617,538.815,0.0
53257.0,STARLINK-4144,PAYLOAD,2023-04-01 18:57:15,15.0882636,0.0001181,53.2176,330.5572,101.7476,258.3649,0.0003768,5.712e-05,0.0,0 STARLINK-4144,1 53257U 22086R   23091.78975752  .00005712  00000-0  37680-3 0  9997,2 53257  53.2176 330.5572 0001181 101.7476 258.3649 15.08826360 38917,6917.922,95.438,540.604,538.97,0.0
53257.0,STARLINK-4144,PAYLOAD,2023-04-01 22:08:01,15.08831491,0.0001317,53.2173,329.9625,103.5331,256.5808,0.00054988,8.472e-05,0.0,0 STARLINK-4144,1 53257U 22086R   23091.92223850  .00008472  00000-0  54988-3 0  9994,2 53257  53.2173 329.9625 0001317 103.5331 256.5808 15.08831491 39117,6917.906,95.438,540.682,538.86,0.0
53257.0,STARLINK-4144,PAYLOAD,2023-04-02 14:01:52,15.08846782,0.0001145,53.2185,326.9887,117.3541,242.7568,0.0012366,0.00019451,0.0,0 STARLINK-4144,1 53257U 22086R   23092.58463890  .00019451  00000-0  12366-2 0  9999,2 53257  53.2185 326.9887 0001145 117.3541 242.7568 15.08846782 39212,6917.86,95.437,540.517,538.933,0.0
53257.0,STARLINK-4144,PAYLOAD,2023-04-02 20:23:24,15.08869321,0.0001171,53.218,325.8011,86.1882,273.9244,0.0013575,0.000214,0.0,0 STARLINK-4144,1 53257U 22086R   23092.84959455  .00021400  00000-0  13575-2 0  9995,2 53257  53.2180 325.8011 0001171  86.1882 273.9244 15.08869321 39079,6917.791,95.436,540.466,538.846,0.0
53257.0,STARLINK-4144,PAYLOAD,2023-04-02 21:58:47,15.08872417,0.000116,53.2166,325.5028,74.8658,285.2462,0.0013073,0.00020597,0.0,0 STARLINK-4144,1 53257U 22086R   23092.91583308  .00020597  00000-0  13073-2 0  9992,2 53257  53.2166 325.5028 0001160  74.8658 285.2462 15.08872417 39260,6917.781,95.436,540.449,538.844,0.0
53257.0,STARLINK-4144,PAYLOAD,2023-04-03 01:09:33,15.08879464,0.000117,53.2167,324.9082,73.074,287.0381,0.0013176,0.00020766,0.0,0 STARLINK-4144,1 53257U 22086R   23093.04830957  .00020766  00000-0  13176-2 0  9994,2 53257  53.2167 324.9082 0001170  73.0740 287.0381 15.08879464 39289,6917.76,95.435,540.434,538.815,0.0
